STARLINK-36453          
1 67341U 26003H   26034.50002314  .00126987  00000+0  21426-2 0  9991
2 67341  42.9996  61.4792 0001475 277.2862 304.2573 15.50484880  5183
STARLINK-36432          
1 67342U 26003J   26034.50002314  .00120183  00000+0  20294-2 0  9996
2 67342  42.9997  61.4740 0001288 276.3393 307.1152 15.50491557  5172
STARLINK-36458          
1 67343U 26003K   26034.50002314  .00117627  00000+0  19869-2 0  9992
2 67343  42.9996  61.4693 0001319 278.7321 306.6426 15.50492894  5185
STARLINK-36422          
1 67344U 26003L   26034.50002314  .00127300  00000+0  21476-2 0  9999
2 67344  42.9997  61.4644 0001337 277.3586 309.9336 15.50487333  5178
STARLINK-35676          
1 67345U 26003M   26034.50002314  .00118292  00000+0  19979-2 0  9995
2 67345  42.9996  61.4594 0001596 278.8656 310.3380 15.50494105  5173
STARLINK-36472          
1 67346U 26003N   26034.50002314  .00001096  00000+0  24516-4 0  9994
2 67346  42.9996  61.4547 0001432 270.7829 320.3184 15.50560034  5172
STARLINK-36420          
1 67347U 26003P   26034.50002314  .00127241  00000+0  21465-2 0  9994
2 67347  42.9997  61.4454 0001535 281.2275 313.7299 15.50489045  5183
STARLINK-36467          
1 67348U 26003Q   26034.50002314  .00118852  00000+0  20074-2 0  9998
2 67348  42.9997  61.4502 0001535 278.4632 314.5806 15.50490549  5187
STARLINK-36457          
1 67349U 26003R   26034.50002314  .00003371  00000+0  63305-4 0  9994
2 67349  42.9997  61.4398 0001337 280.2549 316.5998 15.50558560  5181
STARLINK-36475          
1 67350U 26003S   26034.50002314  .00116453  00000+0  19674-2 0  9990
2 67350  42.9996  61.4345 0001444 279.3098 319.4839 15.50492991  5171
STARLINK-36478          
1 67351U 26003T   26034.50002314  .00163125  00000+0  27383-2 0  9995
2 67351  42.9997  61.4306 0001178 279.0327 321.6744 15.50481685  5174
STARLINK-36479          
1 67352U 26003U   26034.50002314  .00115778  00000+0  19560-2 0  9995
2 67352  42.9996  61.4250 0001267 279.2886 323.3349 15.50495923  5184
