CCSDS_OMM_VERS = 2.0
CREATION_DATE  = 
ORIGINATOR     = 

OBJECT_NAME    = STARLINK-36453
OBJECT_ID      = 2026-003H
CENTER_NAME    = EARTH
REF_FRAME      = TEME
TIME_SYSTEM    = UTC
MEAN_ELEMENT_THEORY = SGP/SGP4

EPOCH          = 2026-02-03T12:00:01.999296
MEAN_MOTION    = 15.50484880
ECCENTRICITY   = .0001475
INCLINATION    = 42.9996
RA_OF_ASC_NODE = 61.4792
ARG_OF_PERICENTER = 277.2862
MEAN_ANOMALY   = 304.2573

EPHEMERIS_TYPE = 0
CLASSIFICATION_TYPE = U
NORAD_CAT_ID   = 67341
ELEMENT_SET_NO = 999
REV_AT_EPOCH   = 518
BSTAR          = .21426E-2
MEAN_MOTION_DOT = .126987E-2
MEAN_MOTION_DDOT = 0

CCSDS_OMM_VERS = 2.0
CREATION_DATE  = 
ORIGINATOR     = 

OBJECT_NAME    = STARLINK-36432
OBJECT_ID      = 2026-003J
CENTER_NAME    = EARTH
REF_FRAME      = TEME
TIME_SYSTEM    = UTC
MEAN_ELEMENT_THEORY = SGP/SGP4

EPOCH          = 2026-02-03T12:00:01.999296
MEAN_MOTION    = 15.50491557
ECCENTRICITY   = .0001288
INCLINATION    = 42.9997
RA_OF_ASC_NODE = 61.4740
ARG_OF_PERICENTER = 276.3393
MEAN_ANOMALY   = 307.1152

EPHEMERIS_TYPE = 0
CLASSIFICATION_TYPE = U
NORAD_CAT_ID   = 67342
ELEMENT_SET_NO = 999
REV_AT_EPOCH   = 517
BSTAR          = .20294E-2
MEAN_MOTION_DOT = .120183E-2
MEAN_MOTION_DDOT = 0

CCSDS_OMM_VERS = 2.0
CREATION_DATE  = 
ORIGINATOR     = 

OBJECT_NAME    = STARLINK-36458
OBJECT_ID      = 2026-003K
CENTER_NAME    = EARTH
REF_FRAME      = TEME
TIME_SYSTEM    = UTC
MEAN_ELEMENT_THEORY = SGP/SGP4

EPOCH          = 2026-02-03T12:00:01.999296
MEAN_MOTION    = 15.50492894
ECCENTRICITY   = .0001319
INCLINATION    = 42.9996
RA_OF_ASC_NODE = 61.4693
ARG_OF_PERICENTER = 278.7321
MEAN_ANOMALY   = 306.6426

EPHEMERIS_TYPE = 0
CLASSIFICATION_TYPE = U
NORAD_CAT_ID   = 67343
ELEMENT_SET_NO = 999
REV_AT_EPOCH   = 518
BSTAR          = .19869E-2
MEAN_MOTION_DOT = .117627E-2
MEAN_MOTION_DDOT = 0

CCSDS_OMM_VERS = 2.0
CREATION_DATE  = 
ORIGINATOR     = 

OBJECT_NAME    = STARLINK-36422
OBJECT_ID      = 2026-003L
CENTER_NAME    = EARTH
REF_FRAME      = TEME
TIME_SYSTEM    = UTC
MEAN_ELEMENT_THEORY = SGP/SGP4

EPOCH          = 2026-02-03T12:00:01.999296
MEAN_MOTION    = 15.50487333
ECCENTRICITY   = .0001337
INCLINATION    = 42.9997
RA_OF_ASC_NODE = 61.4644
ARG_OF_PERICENTER = 277.3586
MEAN_ANOMALY   = 309.9336

EPHEMERIS_TYPE = 0
CLASSIFICATION_TYPE = U
NORAD_CAT_ID   = 67344
ELEMENT_SET_NO = 999
REV_AT_EPOCH   = 517
BSTAR          = .21476E-2
MEAN_MOTION_DOT = .1273E-2
MEAN_MOTION_DDOT = 0

CCSDS_OMM_VERS = 2.0
CREATION_DATE  = 
ORIGINATOR     = 

OBJECT_NAME    = STARLINK-35676
OBJECT_ID      = 2026-003M
CENTER_NAME    = EARTH
REF_FRAME      = TEME
TIME_SYSTEM    = UTC
MEAN_ELEMENT_THEORY = SGP/SGP4

EPOCH          = 2026-02-03T12:00:01.999296
MEAN_MOTION    = 15.50494105
ECCENTRICITY   = .0001596
INCLINATION    = 42.9996
RA_OF_ASC_NODE = 61.4594
ARG_OF_PERICENTER = 278.8656
MEAN_ANOMALY   = 310.3380

EPHEMERIS_TYPE = 0
CLASSIFICATION_TYPE = U
NORAD_CAT_ID   = 67345
ELEMENT_SET_NO = 999
REV_AT_EPOCH   = 517
BSTAR          = .19979E-2
MEAN_MOTION_DOT = .118292E-2
MEAN_MOTION_DDOT = 0

CCSDS_OMM_VERS = 2.0
CREATION_DATE  = 
ORIGINATOR     = 

OBJECT_NAME    = STARLINK-36472
OBJECT_ID      = 2026-003N
CENTER_NAME    = EARTH
REF_FRAME      = TEME
TIME_SYSTEM    = UTC
MEAN_ELEMENT_THEORY = SGP/SGP4

EPOCH          = 2026-02-03T12:00:01.999296
MEAN_MOTION    = 15.50560034
ECCENTRICITY   = .0001432
INCLINATION    = 42.9996
RA_OF_ASC_NODE = 61.4547
ARG_OF_PERICENTER = 270.7829
MEAN_ANOMALY   = 320.3184

EPHEMERIS_TYPE = 0
CLASSIFICATION_TYPE = U
NORAD_CAT_ID   = 67346
ELEMENT_SET_NO = 999
REV_AT_EPOCH   = 517
BSTAR          = .24516E-4
MEAN_MOTION_DOT = .1096E-4
MEAN_MOTION_DDOT = 0

CCSDS_OMM_VERS = 2.0
CREATION_DATE  = 
ORIGINATOR     = 

OBJECT_NAME    = STARLINK-36420
OBJECT_ID      = 2026-003P
CENTER_NAME    = EARTH
REF_FRAME      = TEME
TIME_SYSTEM    = UTC
MEAN_ELEMENT_THEORY = SGP/SGP4

EPOCH          = 2026-02-03T12:00:01.999296
MEAN_MOTION    = 15.50489045
ECCENTRICITY   = .0001535
INCLINATION    = 42.9997
RA_OF_ASC_NODE = 61.4454
ARG_OF_PERICENTER = 281.2275
MEAN_ANOMALY   = 313.7299

EPHEMERIS_TYPE = 0
CLASSIFICATION_TYPE = U
NORAD_CAT_ID   = 67347
ELEMENT_SET_NO = 999
REV_AT_EPOCH   = 518
BSTAR          = .21465E-2
MEAN_MOTION_DOT = .127241E-2
MEAN_MOTION_DDOT = 0

CCSDS_OMM_VERS = 2.0
CREATION_DATE  = 
ORIGINATOR     = 

OBJECT_NAME    = STARLINK-36467
OBJECT_ID      = 2026-003Q
CENTER_NAME    = EARTH
REF_FRAME      = TEME
TIME_SYSTEM    = UTC
MEAN_ELEMENT_THEORY = SGP/SGP4

EPOCH          = 2026-02-03T12:00:01.999296
MEAN_MOTION    = 15.50490549
ECCENTRICITY   = .0001535
INCLINATION    = 42.9997
RA_OF_ASC_NODE = 61.4502
ARG_OF_PERICENTER = 278.4632
MEAN_ANOMALY   = 314.5806

EPHEMERIS_TYPE = 0
CLASSIFICATION_TYPE = U
NORAD_CAT_ID   = 67348
ELEMENT_SET_NO = 999
REV_AT_EPOCH   = 518
BSTAR          = .20074E-2
MEAN_MOTION_DOT = .118852E-2
MEAN_MOTION_DDOT = 0

CCSDS_OMM_VERS = 2.0
CREATION_DATE  = 
ORIGINATOR     = 

OBJECT_NAME    = STARLINK-36457
OBJECT_ID      = 2026-003R
CENTER_NAME    = EARTH
REF_FRAME      = TEME
TIME_SYSTEM    = UTC
MEAN_ELEMENT_THEORY = SGP/SGP4

EPOCH          = 2026-02-03T12:00:01.999296
MEAN_MOTION    = 15.50558560
ECCENTRICITY   = .0001337
INCLINATION    = 42.9997
RA_OF_ASC_NODE = 61.4398
ARG_OF_PERICENTER = 280.2549
MEAN_ANOMALY   = 316.5998

EPHEMERIS_TYPE = 0
CLASSIFICATION_TYPE = U
NORAD_CAT_ID   = 67349
ELEMENT_SET_NO = 999
REV_AT_EPOCH   = 518
BSTAR          = .63305E-4
MEAN_MOTION_DOT = .3371E-4
MEAN_MOTION_DDOT = 0

CCSDS_OMM_VERS = 2.0
CREATION_DATE  = 
ORIGINATOR     = 

OBJECT_NAME    = STARLINK-36475
OBJECT_ID      = 2026-003S
CENTER_NAME    = EARTH
REF_FRAME      = TEME
TIME_SYSTEM    = UTC
MEAN_ELEMENT_THEORY = SGP/SGP4

EPOCH          = 2026-02-03T12:00:01.999296
MEAN_MOTION    = 15.50492991
ECCENTRICITY   = .0001444
INCLINATION    = 42.9996
RA_OF_ASC_NODE = 61.4345
ARG_OF_PERICENTER = 279.3098
MEAN_ANOMALY   = 319.4839

EPHEMERIS_TYPE = 0
CLASSIFICATION_TYPE = U
NORAD_CAT_ID   = 67350
ELEMENT_SET_NO = 999
REV_AT_EPOCH   = 517
BSTAR          = .19674E-2
MEAN_MOTION_DOT = .116453E-2
MEAN_MOTION_DDOT = 0

CCSDS_OMM_VERS = 2.0
CREATION_DATE  = 
ORIGINATOR     = 

OBJECT_NAME    = STARLINK-36478
OBJECT_ID      = 2026-003T
CENTER_NAME    = EARTH
REF_FRAME      = TEME
TIME_SYSTEM    = UTC
MEAN_ELEMENT_THEORY = SGP/SGP4

EPOCH          = 2026-02-03T12:00:01.999296
MEAN_MOTION    = 15.50481685
ECCENTRICITY   = .0001178
INCLINATION    = 42.9997
RA_OF_ASC_NODE = 61.4306
ARG_OF_PERICENTER = 279.0327
MEAN_ANOMALY   = 321.6744

EPHEMERIS_TYPE = 0
CLASSIFICATION_TYPE = U
NORAD_CAT_ID   = 67351
ELEMENT_SET_NO = 999
REV_AT_EPOCH   = 517
BSTAR          = .27383E-2
MEAN_MOTION_DOT = .163125E-2
MEAN_MOTION_DDOT = 0

CCSDS_OMM_VERS = 2.0
CREATION_DATE  = 
ORIGINATOR     = 

OBJECT_NAME    = STARLINK-36479
OBJECT_ID      = 2026-003U
CENTER_NAME    = EARTH
REF_FRAME      = TEME
TIME_SYSTEM    = UTC
MEAN_ELEMENT_THEORY = SGP/SGP4

EPOCH          = 2026-02-03T12:00:01.999296
MEAN_MOTION    = 15.50495923
ECCENTRICITY   = .0001267
INCLINATION    = 42.9996
RA_OF_ASC_NODE = 61.4250
ARG_OF_PERICENTER = 279.2886
MEAN_ANOMALY   = 323.3349

EPHEMERIS_TYPE = 0
CLASSIFICATION_TYPE = U
NORAD_CAT_ID   = 67352
ELEMENT_SET_NO = 999
REV_AT_EPOCH   = 518
BSTAR          = .1956E-2
MEAN_MOTION_DOT = .115778E-2
MEAN_MOTION_DDOT = 0

